CZ-2C R/B               
1 54039U 22132E   26026.48373890  .00044324  00000+0  58398-3 0  9991
2 54039  97.2956  28.6472 0016682 243.7409 116.2133 15.58145345183798
GSLV R/B                
1 54149U 22138AN  26026.66399097  .00004558  00000+0  39811-3 0  9990
2 54149  87.3845 180.4266 0019809 308.2478  51.6970 14.96435566177648
XRISM                   
1 57800U 23137A   26027.16192222  .00008931  00000+0  51633-3 0  9999
2 57800  31.0008 192.1533 0008076 343.1535  16.8835 15.10948898131507
ACS3                    
1 59588U 24077B   26027.28502875  .00024232  00000+0  20187-1 0  9990
2 59588  97.2308 337.7017 0048498 213.2345 146.5770 13.87826575 88454
SZ-21 MODULE            
1 66515U 25246C   26026.56190754  .00037546  00000+0  36755-3 0  9998
2 66515  41.4753 102.0620 0003291 241.2608 118.7902 15.65368052 11469
